[
    {
        "Altitude(m)": 705463.904950357,
        "Argument of Periapsis(deg)": 0.0011390121186627068,
        "Eccentricity": 0.0,
        "Inclination(deg)": 45.0,
        "Latitude(deg)": -10.809035170688173,
        "Longitude(deg)": -175.99658367729143,
        "Mean Anomaly(deg)": -15.21027833525199,
        "RAAN(deg)": 294.9989248058542,
        "Satellite Name": "Constellation 1 1319",
        "Satellite Number": 1319,
        "Semi-Major Axis(m)": 7083131.272910544,
        "Time(s)": 19
    },
    {
        "Altitude(m)": 705453.5541548199,
        "Argument of Periapsis(deg)": 0.0011989601249081123,
        "Eccentricity": 0.0,
        "Inclination(deg)": 45.0,
        "Latitude(deg)": -10.766637937438233,
        "Longitude(deg)": -175.95631106516697,
        "Mean Anomaly(deg)": -15.149577195002003,
        "RAAN(deg)": 294.9988682166886,
        "Satellite Name": "Constellation 1 1319",
        "Satellite Number": 1319,
        "Semi-Major Axis(m)": 7083131.272910544,
        "Time(s)": 20
    },
    {
        "Altitude(m)": 705443.2195599322,
        "Argument of Periapsis(deg)": 0.001258908131153518,
        "Eccentricity": 0.0,
        "Inclination(deg)": 45.0,
        "Latitude(deg)": -10.724234152030613,
        "Longitude(deg)": -175.91605075898912,
        "Mean Anomaly(deg)": -15.088876054752165,
        "RAAN(deg)": 294.998811627523,
        "Satellite Name": "Constellation 1 1319",
        "Satellite Number": 1319,
        "Semi-Major Axis(m)": 7083131.272910544,
        "Time(s)": 21
    },
    {
        "Altitude(m)": 705432.9011941561,
        "Argument of Periapsis(deg)": 0.0013188561373989236,
        "Eccentricity": 0.0,
        "Inclination(deg)": 45.0,
        "Latitude(deg)": -10.68182384222033,
        "Longitude(deg)": -175.87580287541755,
        "Mean Anomaly(deg)": -15.02817491450233,
        "RAAN(deg)": 294.9987550383575,
        "Satellite Name": "Constellation 1 1319",
        "Satellite Number": 1319,
        "Semi-Major Axis(m)": 7083131.272910544,
        "Time(s)": 22
    },
    {
        "Altitude(m)": 705422.5990858467,
        "Argument of Periapsis(deg)": 0.0013788041436443293,
        "Eccentricity": 0.0,
        "Inclination(deg)": 45.0,
        "Latitude(deg)": -10.639407035740122,
        "Longitude(deg)": -175.83556702684496,
        "Mean Anomaly(deg)": -14.967473774252392,
        "RAAN(deg)": 294.9986984491919,
        "Satellite Name": "Constellation 1 1319",
        "Satellite Number": 1319,
        "Semi-Major Axis(m)": 7083131.272910544,
        "Time(s)": 23
    },
    {
        "Altitude(m)": 705412.3132633069,
        "Argument of Periapsis(deg)": 0.001438752149889735,
        "Eccentricity": 0.0,
        "Inclination(deg)": 45.0,
        "Latitude(deg)": -10.596983760298754,
        "Longitude(deg)": -175.7953433299795,
        "Mean Anomaly(deg)": -14.906772634002454,
        "RAAN(deg)": 294.99864186002634,
        "Satellite Name": "Constellation 1 1319",
        "Satellite Number": 1319,
        "Semi-Major Axis(m)": 7083131.272910544,
        "Time(s)": 24
    },
    {
        "Altitude(m)": 705402.043754745,
        "Argument of Periapsis(deg)": 0.0014987001561351404,
        "Eccentricity": 0.0,
        "Inclination(deg)": 45.0,
        "Latitude(deg)": -10.554554043582199,
        "Longitude(deg)": -175.75513173345584,
        "Mean Anomaly(deg)": -14.84607149375262,
        "RAAN(deg)": 294.99858527086076,
        "Satellite Name": "Constellation 1 1319",
        "Satellite Number": 1319,
        "Semi-Major Axis(m)": 7083131.272910544,
        "Time(s)": 25
    },
    {
        "Altitude(m)": 705391.7905882939,
        "Argument of Periapsis(deg)": 0.001558648162380546,
        "Eccentricity": 0.0,
        "Inclination(deg)": 45.0,
        "Latitude(deg)": -10.51211791325334,
        "Longitude(deg)": -175.71493218593247,
        "Mean Anomaly(deg)": -14.785370353502682,
        "RAAN(deg)": 294.9985286816952,
        "Satellite Name": "Constellation 1 1319",
        "Satellite Number": 1319,
        "Semi-Major Axis(m)": 7083131.272910544,
        "Time(s)": 26
    },
    {
        "Altitude(m)": 705381.5537920097,
        "Argument of Periapsis(deg)": 0.0016185961686259519,
        "Eccentricity": 0.0,
        "Inclination(deg)": 45.0,
        "Latitude(deg)": -10.46967539695238,
        "Longitude(deg)": -175.674744636092,
        "Mean Anomaly(deg)": -14.724669213252746,
        "RAAN(deg)": 294.99847209252965,
        "Satellite Name": "Constellation 1 1319",
        "Satellite Number": 1319,
        "Semi-Major Axis(m)": 7083131.272910544,
        "Time(s)": 27
    },
    {
        "Altitude(m)": 705371.3333938645,
        "Argument of Periapsis(deg)": 0.0016785441748713573,
        "Eccentricity": 0.0,
        "Inclination(deg)": 45.0,
        "Latitude(deg)": -10.427226522296797,
        "Longitude(deg)": -175.6345690326406,
        "Mean Anomaly(deg)": -14.66396807300286,
        "RAAN(deg)": 294.9984155033641,
        "Satellite Name": "Constellation 1 1319",
        "Satellite Number": 1319,
        "Semi-Major Axis(m)": 7083131.272910544,
        "Time(s)": 28
    },
    {
        "Altitude(m)": 705361.1294217565,
        "Argument of Periapsis(deg)": 0.001738492181116763,
        "Eccentricity": 0.0,
        "Inclination(deg)": 45.0,
        "Latitude(deg)": -10.384771316881249,
        "Longitude(deg)": -175.59440532430807,
        "Mean Anomaly(deg)": -14.603266932753023,
        "RAAN(deg)": 294.99835891419855,
        "Satellite Name": "Constellation 1 1319",
        "Satellite Number": 1319,
        "Semi-Major Axis(m)": 7083131.272910544,
        "Time(s)": 29
    },
    {
        "Altitude(m)": 705350.9419035078,
        "Argument of Periapsis(deg)": 0.0017984401873621684,
        "Eccentricity": 0.0,
        "Inclination(deg)": 45.0,
        "Latitude(deg)": -10.342309808277504,
        "Longitude(deg)": -175.5542536279447,
        "Mean Anomaly(deg)": -14.542565792503035,
        "RAAN(deg)": 294.9983023250329,
        "Satellite Name": "Constellation 1 1319",
        "Satellite Number": 1319,
        "Semi-Major Axis(m)": 7083131.272910544,
        "Time(s)": 30
    },
    {
        "Altitude(m)": 705340.7708668535,
        "Argument of Periapsis(deg)": 0.0018583881936075745,
        "Eccentricity": 0.0,
        "Inclination(deg)": 45.0,
        "Latitude(deg)": -10.299842024036142,
        "Longitude(deg)": -175.51411355613325,
        "Mean Anomaly(deg)": -14.481864652253147,
        "RAAN(deg)": 294.99824573586733,
        "Satellite Name": "Constellation 1 1319",
        "Satellite Number": 1319,
        "Semi-Major Axis(m)": 7083131.272910544,
        "Time(s)": 31
    },
    {
        "Altitude(m)": 705330.616339451,
        "Argument of Periapsis(deg)": 0.0019183361998529795,
        "Eccentricity": 0.0,
        "Inclination(deg)": 45.0,
        "Latitude(deg)": -10.25736799168415,
        "Longitude(deg)": -175.4739852257711,
        "Mean Anomaly(deg)": -14.421163512003313,
        "RAAN(deg)": 294.9981891467018,
        "Satellite Name": "Constellation 1 1319",
        "Satellite Number": 1319,
        "Semi-Major Axis(m)": 7083131.272910544,
        "Time(s)": 32
    },
    {
        "Altitude(m)": 705320.478348887,
        "Argument of Periapsis(deg)": 0.0019782842060983856,
        "Eccentricity": 0.0,
        "Inclination(deg)": 45.0,
        "Latitude(deg)": -10.214887738726587,
        "Longitude(deg)": -175.43386858568155,
        "Mean Anomaly(deg)": -14.360462371753375,
        "RAAN(deg)": 294.9981325575362,
        "Satellite Name": "Constellation 1 1319",
        "Satellite Number": 1319,
        "Semi-Major Axis(m)": 7083131.272910544,
        "Time(s)": 33
    },
    {
        "Altitude(m)": 705310.3569226551,
        "Argument of Periapsis(deg)": 0.0020382322123437906,
        "Eccentricity": 0.0,
        "Inclination(deg)": 45.0,
        "Latitude(deg)": -10.172401292646537,
        "Longitude(deg)": -175.3937635847116,
        "Mean Anomaly(deg)": -14.299761231503437,
        "RAAN(deg)": 294.9980759683707,
        "Satellite Name": "Constellation 1 1319",
        "Satellite Number": 1319,
        "Semi-Major Axis(m)": 7083131.272910544,
        "Time(s)": 34
    },
    {
        "Altitude(m)": 705300.2520881793,
        "Argument of Periapsis(deg)": 0.002098180218589197,
        "Eccentricity": 0.0,
        "Inclination(deg)": 45.0,
        "Latitude(deg)": -10.129908680905043,
        "Longitude(deg)": -175.35367017173132,
        "Mean Anomaly(deg)": -14.239060091253602,
        "RAAN(deg)": 294.99801937920506,
        "Satellite Name": "Constellation 1 1319",
        "Satellite Number": 1319,
        "Semi-Major Axis(m)": 7083131.272910544,
        "Time(s)": 35
    },
    {
        "Altitude(m)": 705290.1638728002,
        "Argument of Periapsis(deg)": 0.002158128224834602,
        "Eccentricity": 0.0,
        "Inclination(deg)": 45.0,
        "Latitude(deg)": -10.087409930940927,
        "Longitude(deg)": -175.31358829563345,
        "Mean Anomaly(deg)": -14.178358951003665,
        "RAAN(deg)": 294.9979627900395,
        "Satellite Name": "Constellation 1 1319",
        "Satellite Number": 1319,
        "Semi-Major Axis(m)": 7083131.272910544,
        "Time(s)": 36
    },
    {
        "Altitude(m)": 705280.0923037796,
        "Argument of Periapsis(deg)": 0.002218076231080008,
        "Eccentricity": 0.0,
        "Inclination(deg)": 45.0,
        "Latitude(deg)": -10.044905070171126,
        "Longitude(deg)": -175.27351807343132,
        "Mean Anomaly(deg)": -14.117657810753728,
        "RAAN(deg)": 294.99790620087396,
        "Satellite Name": "Constellation 1 1319",
        "Satellite Number": 1319,
        "Semi-Major Axis(m)": 7083131.272910544,
        "Time(s)": 37
    }
]